Event,Magnitude,Fault Type,Distance,Depth,Station,Instrument,T* Class,P* Class,PGA,SA 0.01s,SA 0.02s,SA 0.03s,SA 0.05s,SA 0.07s,SA 0.1s,SA 0.15s,SA 0.2s,SA 0.25s, SA 0.3s,SA 0.4s,SA 0.5s,SA 0.75s,SA 1s,SA 1.5s,SA 2s,SA 3s,SA 4s,SA 5s,SA 7.5s,SA 10s
1509162254,8.3,0.0,78.51,25,V01A,FBA ES-T,VI,None,4.74E-02,4.76E-02,4.89E-02,5.00E-02,6.06E-02,8.72E-02,9.63E-02,1.06E-01,1.15E-01,1.02E-01,8.93E-02,8.05E-02,6.96E-02,4.26E-02,2.47E-02,1.44E-02,1.61E-02,7.17E-03,4.23E-03,3.30E-03,0.00E+00,0.00E+00  
1509162254,8.3,0.0,83.96,25,V02A,FBA ES-T,II,C,1.11E-01,1.12E-01,1.15E-01,1.26E-01,1.70E-01,2.18E-01,3.95E-01,3.91E-01,1.63E-01,1.12E-01,8.82E-02,6.66E-02,5.33E-02,3.14E-02,2.13E-02,1.26E-02,1.18E-02,6.63E-03,4.88E-03,4.04E-03,4.18E-03,0.00E+00  
1509162254,8.3,0.0,79.34,25,V09A,FBA ES-T,IV,C,5.23E-02,5.25E-02,5.30E-02,5.70E-02,7.30E-02,7.02E-02,9.63E-02,1.31E-01,1.30E-01,1.61E-01,1.60E-01,1.30E-01,1.91E-01,1.57E-01,6.27E-02,2.86E-02,1.80E-02,9.54E-03,5.52E-03,3.95E-03,4.35E-03,0.00E+00  
1509162316,6.1,0.0,131.44,29.2,VA01,FBA ES-T,II,B,2.70E-02,2.73E-02,2.79E-02,2.89E-02,3.48E-02,6.24E-02,1.07E-01,8.27E-02,4.66E-02,4.45E-02,3.38E-02,2.90E-02,2.38E-02,1.85E-02,1.03E-02,5.89E-03,3.68E-03,2.24E-03,1.27E-03,1.00E-03,4.80E-04,0.00E+00  
1509162318,7.0,0.0,160.99,16.5,VA01,FBA ES-T,II,B,2.70E-02,2.73E-02,2.79E-02,2.89E-02,3.48E-02,6.24E-02,1.07E-01,8.27E-02,4.66E-02,4.45E-02,3.38E-02,2.90E-02,2.38E-02,1.85E-02,1.03E-02,5.89E-03,3.68E-03,2.24E-03,1.27E-03,1.00E-03,4.80E-04,0.00E+00  
1509162318,7.0,0.0,190.37,16.5,VA03,FBA ES-T,VI,None,1.02E-01,1.03E-01,1.04E-01,1.07E-01,1.11E-01,1.58E-01,1.84E-01,3.03E-01,2.67E-01,2.25E-01,1.47E-01,2.15E-01,1.51E-01,9.92E-02,4.97E-02,2.65E-02,1.21E-02,4.43E-03,2.58E-03,1.63E-03,5.36E-04,3.76E-04  
1509170410,6.7,0.0,194.68,40.7,VA03,FBA ES-T,VI,None,3.91E-02,3.95E-02,4.00E-02,4.17E-02,4.53E-02,5.79E-02,1.06E-01,1.34E-01,1.16E-01,9.44E-02,6.55E-02,7.50E-02,5.57E-02,3.85E-02,3.60E-02,1.35E-02,6.86E-03,2.04E-03,1.14E-03,7.42E-04,3.46E-04,0.00E+00  
1509211739,6.6,0.0,157.91,13,VA03,FBA ES-T,VI,None,3.05E-02,3.12E-02,3.18E-02,3.20E-02,3.92E-02,6.45E-02,1.03E-01,9.71E-02,7.96E-02,5.55E-02,4.21E-02,4.58E-02,3.38E-02,1.56E-02,1.37E-02,8.00E-03,6.43E-03,2.73E-03,2.11E-03,1.19E-03,4.26E-04,2.20E-04  
1509162318,7.0,0.0,231.14,16.5,VA05,FBA ES-T,IV,B,2.65E-02,2.66E-02,2.68E-02,2.79E-02,2.76E-02,3.28E-02,3.71E-02,5.43E-02,7.13E-02,7.04E-02,8.22E-02,7.46E-02,9.41E-02,2.85E-02,1.30E-02,5.01E-03,2.51E-03,1.28E-03,7.98E-04,5.94E-04,2.94E-04,2.36E-04  